*******************************************************************************
Ephemeris / WWW_USER Mon Mar 24 07:34:38 2025 Pasadena, USA      / Horizons    
*******************************************************************************
Target body name: (2018 RG5)                      {source: JPL#6}
Center body name: Earth (399)                     {source: DE441}
Center-site name: Mauna Kea
*******************************************************************************
Start time      : A.D. 2018-Nov-23 03:51:00.0000 UT      
Stop  time      : A.D. 2018-Nov-23 16:25:00.0000 UT      
Step-size       : 1 minutes
*******************************************************************************
Target pole/equ : undefined
Target radii    : undefined                                                    
Center geodetic : 204.5278, 19.8260847, 4.21024   {E-lon(deg),Lat(deg),Alt(km)}
Center cylindric: 204.5278, 6006.35451, 2151.0229 {E-lon(deg),Dxy(km),Dz(km)}
Center pole/equ : ITRF93                          {East-longitude positive}
Center radii    : 6378.137, 6378.137, 6356.752 km {Equator_a, b, pole_c}       
Target primary  : Sun
Vis. interferer : MOON (R_eq= 1737.400) km        {source: DE441}
Rel. light bend : Sun                             {source: DE441}
Rel. lght bnd GM: 1.3271E+11 km^3/s^2                                          
Small-body perts: Yes                             {source: SB441-N16}
Atmos refraction: NO (AIRLESS)
RA format       : HMS
Time format     : CAL 
Calendar mode   : Mixed Julian/Gregorian
RTS-only print  : NO       
EOP file        : eop.250321.p250617                                           
EOP coverage    : DATA-BASED 1962-JAN-20 TO 2025-MAR-21. PREDICTS-> 2025-JUN-16
Units conversion: 1 au= 149597870.700 km, c= 299792.458 km/s, 1 day= 86400.0 s 
Table cut-offs 1: Elevation (-90.0deg=NO ),Airmass (>38.000=NO), Daylight (YES)
Table cut-offs 2: Solar elongation (  0.0,180.0=NO ),Local Hour Angle( 0.0=NO )
Table cut-offs 3: RA/DEC angular rate (     0.0=NO )                           
*******************************************************************************
Initial IAU76/J2000 heliocentric ecliptic osculating elements (au, days, deg.):
  EPOCH=  2458374.5 ! 2018-Sep-13.00 (TDB)         Residual RMS= .44286        
   EC= .3970272763955992   QR= .9476094655819058   TP= 2458410.7007282218      
   OM= 172.9777515025259   W=  220.286388004559    IN= 6.065188755768435       
  Equivalent ICRF heliocentric cartesian coordinates (au, au/d):
   X= 1.011373795361920E+00  Y=-1.657289676662098E-01  Z=-6.569093016663846E-02
  VX=-6.707749535245534E-04 VY= 1.878070382659777E-02 VZ= 5.901532854039199E-03
Asteroid physical parameters (km, seconds, rotational period in hours):        
   GM= n.a.                RAD= n.a.               ROTPER= n.a.                
   H= 26.76                G= .150                 B-V= n.a.                   
                           ALBEDO= n.a.            STYP= n.a.                  
*******************************************************************************
 Date__(UT)__HR:MN     R.A._________(ICRF)_________DEC
******************************************************
$$SOE
 2018-Nov-23 03:51 Cm  09 44 13.028346 -10 17 37.88877
 2018-Nov-23 03:52 Cm  09 44 13.070270 -10 17 37.92690
 2018-Nov-23 03:53 Cm  09 44 13.112195 -10 17 37.96513
 2018-Nov-23 03:54 Cm  09 44 13.154120 -10 17 38.00346
 2018-Nov-23 03:55 Cm  09 44 13.196044 -10 17 38.04189
 2018-Nov-23 03:56 Cm  09 44 13.237968 -10 17 38.08042
 2018-Nov-23 03:57 Cm  09 44 13.279891 -10 17 38.11904
 2018-Nov-23 03:58 Cm  09 44 13.321813 -10 17 38.15777
 2018-Nov-23 03:59 Cm  09 44 13.363735 -10 17 38.19659
 2018-Nov-23 04:00 Cm  09 44 13.405655 -10 17 38.23551
 2018-Nov-23 04:01 Cm  09 44 13.447574 -10 17 38.27453
 2018-Nov-23 04:02 Cm  09 44 13.489492 -10 17 38.31365
 2018-Nov-23 04:03 Cm  09 44 13.531407 -10 17 38.35287
 2018-Nov-23 04:04 Cm  09 44 13.573322 -10 17 38.39218
 2018-Nov-23 04:05 Nm  09 44 13.615234 -10 17 38.43159
 2018-Nov-23 04:06 Nm  09 44 13.657144 -10 17 38.47111
 2018-Nov-23 04:07 Nm  09 44 13.699051 -10 17 38.51072
 2018-Nov-23 04:08 Nm  09 44 13.740956 -10 17 38.55043
 2018-Nov-23 04:09 Nm  09 44 13.782859 -10 17 38.59024
 2018-Nov-23 04:10 Nm  09 44 13.824759 -10 17 38.63014
 2018-Nov-23 04:11 Nm  09 44 13.866655 -10 17 38.67015
 2018-Nov-23 04:12 Nm  09 44 13.908549 -10 17 38.71025
 2018-Nov-23 04:13 Nm  09 44 13.950439 -10 17 38.75045
 2018-Nov-23 04:14 Nm  09 44 13.992326 -10 17 38.79075
 2018-Nov-23 04:15 Nm  09 44 14.034209 -10 17 38.83115
 2018-Nov-23 04:16 Nm  09 44 14.076088 -10 17 38.87165
 2018-Nov-23 04:17 Nm  09 44 14.117964 -10 17 38.91225
 2018-Nov-23 04:18 Nm  09 44 14.159835 -10 17 38.95294
 2018-Nov-23 04:19 Nm  09 44 14.201701 -10 17 38.99373
 2018-Nov-23 04:20 Nm  09 44 14.243564 -10 17 39.03462
 2018-Nov-23 04:21 Nm  09 44 14.285421 -10 17 39.07561
 2018-Nov-23 04:22 Nm  09 44 14.327274 -10 17 39.11669
 2018-Nov-23 04:23 Nm  09 44 14.369122 -10 17 39.15788
 2018-Nov-23 04:24 Nm  09 44 14.410964 -10 17 39.19916
 2018-Nov-23 04:25 Nm  09 44 14.452802 -10 17 39.24054
 2018-Nov-23 04:26 Nm  09 44 14.494633 -10 17 39.28202
 2018-Nov-23 04:27 Nm  09 44 14.536460 -10 17 39.32360
 2018-Nov-23 04:28 Nm  09 44 14.578280 -10 17 39.36527
 2018-Nov-23 04:29 Nm  09 44 14.620094 -10 17 39.40704
 2018-Nov-23 04:30 Nm  09 44 14.661902 -10 17 39.44891
 2018-Nov-23 04:31 Nm  09 44 14.703704 -10 17 39.49088
 2018-Nov-23 04:32 Am  09 44 14.745499 -10 17 39.53294
 2018-Nov-23 04:33 Am  09 44 14.787288 -10 17 39.57510
 2018-Nov-23 04:34 Am  09 44 14.829069 -10 17 39.61736
 2018-Nov-23 04:35 Am  09 44 14.870844 -10 17 39.65972
 2018-Nov-23 04:36 Am  09 44 14.912611 -10 17 39.70217
 2018-Nov-23 04:37 Am  09 44 14.954372 -10 17 39.74472
 2018-Nov-23 04:38 Am  09 44 14.996124 -10 17 39.78737
 2018-Nov-23 04:39 Am  09 44 15.037869 -10 17 39.83012
 2018-Nov-23 04:40 Am  09 44 15.079606 -10 17 39.87296
 2018-Nov-23 04:41 Am  09 44 15.121336 -10 17 39.91590
 2018-Nov-23 04:42 Am  09 44 15.163057 -10 17 39.95894
 2018-Nov-23 04:43 Am  09 44 15.204769 -10 17 40.00207
 2018-Nov-23 04:44 Am  09 44 15.246473 -10 17 40.04530
 2018-Nov-23 04:45 Am  09 44 15.288169 -10 17 40.08863
 2018-Nov-23 04:46 Am  09 44 15.329856 -10 17 40.13205
 2018-Nov-23 04:47 Am  09 44 15.371533 -10 17 40.17557
 2018-Nov-23 04:48 Am  09 44 15.413202 -10 17 40.21918
 2018-Nov-23 04:49 Am  09 44 15.454861 -10 17 40.26290
 2018-Nov-23 04:50 Am  09 44 15.496511 -10 17 40.30670
 2018-Nov-23 04:51 Am  09 44 15.538151 -10 17 40.35061
 2018-Nov-23 04:52 Am  09 44 15.579781 -10 17 40.39461
 2018-Nov-23 04:53 Am  09 44 15.621401 -10 17 40.43870
 2018-Nov-23 04:54 Am  09 44 15.663011 -10 17 40.48289
 2018-Nov-23 04:55 Am  09 44 15.704611 -10 17 40.52718
 2018-Nov-23 04:56 Am  09 44 15.746200 -10 17 40.57156
 2018-Nov-23 04:57 Am  09 44 15.787779 -10 17 40.61604
 2018-Nov-23 04:58 Am  09 44 15.829347 -10 17 40.66062
 2018-Nov-23 04:59  m  09 44 15.870904 -10 17 40.70528
 2018-Nov-23 05:00  m  09 44 15.912449 -10 17 40.75005
 2018-Nov-23 05:01  m  09 44 15.953984 -10 17 40.79491
 2018-Nov-23 05:02  m  09 44 15.995507 -10 17 40.83986
 2018-Nov-23 05:03  m  09 44 16.037018 -10 17 40.88491
 2018-Nov-23 05:04  m  09 44 16.078518 -10 17 40.93005
 2018-Nov-23 05:05  m  09 44 16.120006 -10 17 40.97529
 2018-Nov-23 05:06  m  09 44 16.161482 -10 17 41.02062
 2018-Nov-23 05:07  m  09 44 16.202945 -10 17 41.06605
 2018-Nov-23 05:08  m  09 44 16.244396 -10 17 41.11157
 2018-Nov-23 05:09  m  09 44 16.285834 -10 17 41.15718
 2018-Nov-23 05:10  m  09 44 16.327260 -10 17 41.20289
 2018-Nov-23 05:11  m  09 44 16.368673 -10 17 41.24869
 2018-Nov-23 05:12  m  09 44 16.410072 -10 17 41.29458
 2018-Nov-23 05:13  m  09 44 16.451459 -10 17 41.34057
 2018-Nov-23 05:14  m  09 44 16.492832 -10 17 41.38665
 2018-Nov-23 05:15  m  09 44 16.534192 -10 17 41.43283
 2018-Nov-23 05:16  m  09 44 16.575537 -10 17 41.47910
 2018-Nov-23 05:17  m  09 44 16.616869 -10 17 41.52546
 2018-Nov-23 05:18  m  09 44 16.658187 -10 17 41.57191
 2018-Nov-23 05:19  m  09 44 16.699491 -10 17 41.61846
 2018-Nov-23 05:20  m  09 44 16.740781 -10 17 41.66509
 2018-Nov-23 05:21  m  09 44 16.782056 -10 17 41.71182
 2018-Nov-23 05:22  m  09 44 16.823316 -10 17 41.75865
 2018-Nov-23 05:23  m  09 44 16.864562 -10 17 41.80556
 2018-Nov-23 05:24  m  09 44 16.905792 -10 17 41.85257
 2018-Nov-23 05:25  m  09 44 16.947008 -10 17 41.89966
 2018-Nov-23 05:26  m  09 44 16.988208 -10 17 41.94685
 2018-Nov-23 05:27  m  09 44 17.029393 -10 17 41.99413
 2018-Nov-23 05:28  m  09 44 17.070562 -10 17 42.04151
 2018-Nov-23 05:29  m  09 44 17.111716 -10 17 42.08897
 2018-Nov-23 05:30  m  09 44 17.152853 -10 17 42.13652
 2018-Nov-23 05:31  m  09 44 17.193975 -10 17 42.18416
 2018-Nov-23 05:32  m  09 44 17.235080 -10 17 42.23190
 2018-Nov-23 05:33  m  09 44 17.276169 -10 17 42.27972
 2018-Nov-23 05:34  m  09 44 17.317241 -10 17 42.32764
 2018-Nov-23 05:35  m  09 44 17.358297 -10 17 42.37564
 2018-Nov-23 05:36  m  09 44 17.399336 -10 17 42.42374
 2018-Nov-23 05:37  m  09 44 17.440358 -10 17 42.47192
 2018-Nov-23 05:38  m  09 44 17.481363 -10 17 42.52019
 2018-Nov-23 05:39  m  09 44 17.522350 -10 17 42.56855
 2018-Nov-23 05:40  m  09 44 17.563320 -10 17 42.61700
 2018-Nov-23 05:41  m  09 44 17.604273 -10 17 42.66554
 2018-Nov-23 05:42  m  09 44 17.645208 -10 17 42.71417
 2018-Nov-23 05:43  m  09 44 17.686125 -10 17 42.76289
 2018-Nov-23 05:44  m  09 44 17.727023 -10 17 42.81169
 2018-Nov-23 05:45  m  09 44 17.767904 -10 17 42.86059
 2018-Nov-23 05:46  m  09 44 17.808766 -10 17 42.90957
 2018-Nov-23 05:47  m  09 44 17.849610 -10 17 42.95864
 2018-Nov-23 05:48  m  09 44 17.890435 -10 17 43.00779
 2018-Nov-23 05:49  m  09 44 17.931242 -10 17 43.05703
 2018-Nov-23 05:50  m  09 44 17.972029 -10 17 43.10636
 2018-Nov-23 05:51  m  09 44 18.012798 -10 17 43.15578
 2018-Nov-23 05:52  m  09 44 18.053547 -10 17 43.20528
 2018-Nov-23 05:53  m  09 44 18.094276 -10 17 43.25487
